{"type": "FeatureCollection", "features": [ {"type": "Feature", "properties": {"norad_id": 37216, "name": "COSMO-SKYMED 4", "group": "resource", "lat": -31.254569011533064, "lon": 162.67653779988444, "alt_km": 629.007736994884, "timestamp": "2025-12-02T08:59:32.376404+00:00", "meta": {"OBJECT_NAME": "COSMO-SKYMED 4", "OBJECT_ID": "2010-060A", "EPOCH": "2025-12-02T04:16:25.781952", "MEAN_MOTION": 14.821652, "ECCENTRICITY": 0.0001484, "INCLINATION": 97.8814, "RA_OF_ASC_NODE": 157.6602, "ARG_OF_PERICENTER": 84.7324, "MEAN_ANOMALY": 275.4059, "EPHEMERIS_TYPE": 0, "CLASSIFICATION_TYPE": "U", "NORAD_CAT_ID": 37216, "ELEMENT_SET_NO": 999, "REV_AT_EPOCH": 81538, "BSTAR": 9.7509e-05, "MEAN_MOTION_DOT": 7.24e-06, "MEAN_MOTION_DDOT": 0}, "tle": {"line1": "1 37216U 10060A   25336.17807618  .00000724  00000+0  97509-4 0  9999", "line2": "2 37216  97.8814 157.6602 0001484  84.7324 275.4059 14.82165200815386"}}, "geometry": {"type": "Point", "coordinates": [162.67653779988444, -31.254569011533064]}}, {"type": "Feature", "properties": {"norad_id": 37387, "name": "RESOURCESAT-2", "group": "resource", "lat": 29.00354385025901, "lon": 35.0521679708174, "alt_km": 814.763624648831, "timestamp": "2025-12-02T08:59:32.376414+00:00", "meta": {"OBJECT_NAME": "RESOURCESAT-2", "OBJECT_ID": "2011-015A", "EPOCH": "2025-12-02T03:47:13.416288", "MEAN_MOTION": 14.21590159, "ECCENTRICITY": 0.0006816, "INCLINATION": 98.7891, "RA_OF_ASC_NODE": 39.7566, "ARG_OF_PERICENTER": 69.6578, "MEAN_ANOMALY": 290.533, "EPHEMERIS_TYPE": 0, "CLASSIFICATION_TYPE": "U", "NORAD_CAT_ID": 37387, "ELEMENT_SET_NO": 999, "REV_AT_EPOCH": 75818, "BSTAR": 0.0001055, "MEAN_MOTION_DOT": 1.87e-06, "MEAN_MOTION_DDOT": 0}, "tle": {"line1": "1 37387U 11015A   25336.15779417  .00000187  00000+0  10550-3 0  9995", "line2": "2 37387  98.7891  39.7566 0006816  69.6578 290.5330 14.21590159758188"}}, "geometry": {"type": "Point", "coordinates": [35.0521679708174, 29.00354385025901]}}, {"type": "Feature", "properties": {"norad_id": 37781, "name": "HAIYANG-2A", "group": "resource", "lat": -49.58179020368099, "lon": 146.3292333454078, "alt_km": 975.6406578045517, "timestamp": "2025-12-02T08:59:32.376424+00:00", "meta": {"OBJECT_NAME": "HAIYANG-2A", "OBJECT_ID": "2011-043A", "EPOCH": "2025-12-02T04:23:43.199232", "MEAN_MOTION": 13.7883401, "ECCENTRICITY": 0.000164, "INCLINATION": 99.3377, "RA_OF_ASC_NODE": 337.2803, "ARG_OF_PERICENTER": 98.3543, "MEAN_ANOMALY": 261.7795, "EPHEMERIS_TYPE": 0, "CLASSIFICATION_TYPE": "U", "NORAD_CAT_ID": 37781, "ELEMENT_SET_NO": 999, "REV_AT_EPOCH": 71953, "BSTAR": 5.287e-05, "MEAN_MOTION_DOT": 1e-07, "MEAN_MOTION_DDOT": 0}, "tle": {"line1": "1 37781U 11043A   25336.18313888  .00000010  00000+0  52870-4 0  9990", "line2": "2 37781  99.3377 337.2803 0001640  98.3543 261.7795 13.78834010719532"}}, "geometry": {"type": "Point", "coordinates": [146.3292333454078, -49.58179020368099]}}, {"type": "Feature", "properties": {"norad_id": 37791, "name": "RASAT", "group": "resource", "lat": -81.89689181634076, "lon": 160.92247718731363, "alt_km": 690.5427624327613, "timestamp": "2025-12-02T08:59:32.376435+00:00", "meta": {"OBJECT_NAME": "RASAT", "OBJECT_ID": "2011-044D", "EPOCH": "2025-12-02T04:53:39.896736", "MEAN_MOTION": 14.67884493, "ECCENTRICITY": 0.0021958, "INCLINATION": 98.0657, "RA_OF_ASC_NODE": 65.618, "ARG_OF_PERICENTER": 96.7196, "MEAN_ANOMALY": 350.7774, "EPHEMERIS_TYPE": 0, "CLASSIFICATION_TYPE": "U", "NORAD_CAT_ID": 37791, "ELEMENT_SET_NO": 999, "REV_AT_EPOCH": 76428, "BSTAR": 0.00014567, "MEAN_MOTION_DOT": 7.87e-06, "MEAN_MOTION_DDOT": 0}, "tle": {"line1": "1 37791U 11044D   25336.20393399  .00000787  00000+0  14567-3 0  9991", "line2": "2 37791  98.0657  65.6180 0021958  96.7196 350.7774 14.67884493764287"}}, "geometry": {"type": "Point", "coordinates": [160.92247718731363, -81.89689181634076]}}, {"type": "Feature", "properties": {"norad_id": 37841, "name": "SRMSAT", "group": "resource", "lat": -10.178521289139765, "lon": 20.318908368017684, "alt_km": 844.8294478194139, "timestamp": "2025-12-02T08:59:32.376445+00:00", "meta": {"OBJECT_NAME": "SRMSAT", "OBJECT_ID": "2011-058D", "EPOCH": "2025-12-01T21:57:27.777312", "MEAN_MOTION": 14.11505404, "ECCENTRICITY": 0.0011754, "INCLINATION": 19.9698, "RA_OF_ASC_NODE": 173.4687, "ARG_OF_PERICENTER": 193.5378, "MEAN_ANOMALY": 196.2106, "EPHEMERIS_TYPE": 0, "CLASSIFICATION_TYPE": "U", "NORAD_CAT_ID": 37841, "ELEMENT_SET_NO": 999, "REV_AT_EPOCH": 72991, "BSTAR": 0.00010221, "MEAN_MOTION_DOT": 4.53e-06, "MEAN_MOTION_DDOT": 0}, "tle": {"line1": "1 37841U 11058D   25335.91490483  .00000453  00000+0  10221-3 0  9994", "line2": "2 37841  19.9698 173.4687 0011754 193.5378 196.2106 14.11505404729915"}}, "geometry": {"type": "Point", "coordinates": [20.318908368017684, -10.178521289139765]}}, {"type": "Feature", "properties": {"norad_id": 38012, "name": "PLEIADES 1A", "group": "resource", "lat": 51.64697746852749, "lon": 38.82421361306878, "alt_km": 692.2039184278374, "timestamp": "2025-12-02T08:59:32.376456+00:00", "meta": {"OBJECT_NAME": "PLEIADES 1A", "OBJECT_ID": "2011-076F", "EPOCH": "2025-12-02T05:46:17.923872", "MEAN_MOTION": 14.58544331, "ECCENTRICITY": 0.0001423, "INCLINATION": 98.1835, "RA_OF_ASC_NODE": 49.1706, "ARG_OF_PERICENTER": 82.0006, "MEAN_ANOMALY": 346.2653, "EPHEMERIS_TYPE": 0, "CLASSIFICATION_TYPE": "U", "NORAD_CAT_ID": 38012, "ELEMENT_SET_NO": 999, "REV_AT_EPOCH": 74328, "BSTAR": 0.00011849, "MEAN_MOTION_DOT": 5.05e-06, "MEAN_MOTION_DDOT": 0}, "tle": {"line1": "1 38012U 11076F   25336.24048523  .00000505  00000+0  11849-3 0  9991", "line2": "2 38012  98.1835  49.1706 0001423  82.0006 346.2653 14.58544331743284"}}, "geometry": {"type": "Point", "coordinates": [38.82421361306878, 51.64697746852749]}}, {"type": "Feature", "properties": {"norad_id": 38038, "name": "ZIYUAN 1-02C (ZY 1-02C)", "group": "resource", "lat": 5.6236894901845575, "lon": 41.741704137555736, "alt_km": 771.8700860285717, "timestamp": "2025-12-02T08:59:32.376466+00:00", "meta": {"OBJECT_NAME": "ZIYUAN 1-02C (ZY 1-02C)", "OBJECT_ID": "2011-079A", "EPOCH": "2025-12-02T04:20:58.998624", "MEAN_MOTION": 14.37992376, "ECCENTRICITY": 0.0006714, "INCLINATION": 98.4347, "RA_OF_ASC_NODE": 42.389, "ARG_OF_PERICENTER": 167.7956, "MEAN_ANOMALY": 277.205, "EPHEMERIS_TYPE": 0, "CLASSIFICATION_TYPE": "U", "NORAD_CAT_ID": 38038, "ELEMENT_SET_NO": 999, "REV_AT_EPOCH": 73089, "BSTAR": 0.00021376, "MEAN_MOTION_DOT": 6.03e-06, "MEAN_MOTION_DDOT": 0}, "tle": {"line1": "1 38038U 11079A   25336.18123841  .00000603  00000+0  21376-3 0  9997", "line2": "2 38038  98.4347  42.3890 0006714 167.7956 277.2050 14.37992376730895"}}, "geometry": {"type": "Point", "coordinates": [41.741704137555736, 5.6236894901845575]}}, {"type": "Feature", "properties": {"norad_id": 38046, "name": "ZIYUAN 3-1 (ZY 3-1)", "group": "resource", "lat": 14.036959338755759, "lon": 40.758132754715994, "alt_km": 368.39504801813746, "timestamp": "2025-12-02T08:59:32.376477+00:00", "meta": {"OBJECT_NAME": "ZIYUAN 3-1 (ZY 3-1)", "OBJECT_ID": "2012-001A", "EPOCH": "2025-12-02T04:19:59.119104", "MEAN_MOTION": 15.66579405, "ECCENTRICITY": 0.0002187, "INCLINATION": 97.1785, "RA_OF_ASC_NODE": 42.3657, "ARG_OF_PERICENTER": 36.3966, "MEAN_ANOMALY": 323.7443, "EPHEMERIS_TYPE": 0, "CLASSIFICATION_TYPE": "U", "NORAD_CAT_ID": 38046, "ELEMENT_SET_NO": 999, "REV_AT_EPOCH": 77331, "BSTAR": 0.00068995, "MEAN_MOTION_DOT": 0.00072425, "MEAN_MOTION_DDOT": 0}, "tle": {"line1": "1 38046U 12001A   25336.18054536  .00072425  00000+0  68995-3 0  9995", "line2": "2 38046  97.1785  42.3657 0002187  36.3966 323.7443 15.66579405773313"}}, "geometry": {"type": "Point", "coordinates": [40.758132754715994, 14.036959338755759]}}, {"type": "Feature", "properties": {"norad_id": 38338, "name": "ARIRANG-3 (KOMPSAT-3)", "group": "resource", "lat": -12.43132738557077, "lon": 109.03600158578416, "alt_km": 696.4928444022162, "timestamp": "2025-12-02T08:59:32.376487+00:00", "meta": {"OBJECT_NAME": "ARIRANG-3 (KOMPSAT-3)", "OBJECT_ID": "2012-025B", "EPOCH": "2025-12-02T03:11:09.427200", "MEAN_MOTION": 14.61688792, "ECCENTRICITY": 0.0006111, "INCLINATION": 98.3306, "RA_OF_ASC_NODE": 290.6433, "ARG_OF_PERICENTER": 11.9819, "MEAN_ANOMALY": 348.1526, "EPHEMERIS_TYPE": 0, "CLASSIFICATION_TYPE": "U", "NORAD_CAT_ID": 38338, "ELEMENT_SET_NO": 999, "REV_AT_EPOCH": 72255, "BSTAR": 0.00015827, "MEAN_MOTION_DOT": 7.4e-06, "MEAN_MOTION_DDOT": 0}, "tle": {"line1": "1 38338U 12025B   25336.13274800  .00000740  00000+0  15827-3 0  9995", "line2": "2 38338  98.3306 290.6433 0006111  11.9819 348.1526 14.61688792722553"}}, "geometry": {"type": "Point", "coordinates": [109.03600158578416, -12.43132738557077]}}, {"type": "Feature", "properties": {"norad_id": 38709, "name": "EXACTVIEW-1 (ADS-1B)", "group": "resource", "lat": 57.79198260693307, "lon": -80.94239088845636, "alt_km": 804.2234727429741, "timestamp": "2025-12-02T08:59:32.376498+00:00", "meta": {"OBJECT_NAME": "EXACTVIEW-1 (ADS-1B)", "OBJECT_ID": "2012-039C", "EPOCH": "2025-12-02T05:03:24.092064", "MEAN_MOTION": 14.24900615, "ECCENTRICITY": 0.00112, "INCLINATION": 98.9634, "RA_OF_ASC_NODE": 84.38, "ARG_OF_PERICENTER": 24.254, "MEAN_ANOMALY": 335.9164, "EPHEMERIS_TYPE": 0, "CLASSIFICATION_TYPE": "U", "NORAD_CAT_ID": 38709, "ELEMENT_SET_NO": 999, "REV_AT_EPOCH": 69465, "BSTAR": 9.2164e-05, "MEAN_MOTION_DOT": 1.69e-06, "MEAN_MOTION_DDOT": 0}, "tle": {"line1": "1 38709U 12039C   25336.21069551  .00000169  00000+0  92164-4 0  9991", "line2": "2 38709  98.9634  84.3800 0011200  24.2540 335.9164 14.24900615694655"}}, "geometry": {"type": "Point", "coordinates": [-80.94239088845636, 57.79198260693307]}}]}